{
  "norad_id": 57389,
  "name": "STARLING 3",
  "history": [
    {
      "epoch": "2026-03-28T21:09:17.669664Z",
      "apogee_km": 535.9081873917867,
      "perigee_km": 527.8914390825421,
      "latitude_deg": -2.3055013477166054e-05,
      "longitude_deg": -54.45635688796646,
      "height_km": 531.2416766818025,
      "semi_major_axis_km": 6910.036813237164,
      "eccentricity": 0.00058008,
      "inclination_deg": 99.5098,
      "raan_deg": 89.1628,
      "arg_perigee_deg": 23.9252,
      "mean_anomaly_deg": 336.224,
      "mean_motion_rev_day": 15.11409753
    },
    {
      "epoch": "2026-03-28T22:44:37.596768Z",
      "apogee_km": 535.9006754563597,
      "perigee_km": 527.8919468487347,
      "latitude_deg": -1.2877174852676297e-05,
      "longitude_deg": -78.27244072577871,
      "height_km": 531.2369858739561,
      "semi_major_axis_km": 6910.033311152547,
      "eccentricity": 0.0005795,
      "inclination_deg": 99.5098,
      "raan_deg": 89.245,
      "arg_perigee_deg": 23.7522,
      "mean_anomaly_deg": 336.3968,
      "mean_motion_rev_day": 15.11410902
    },
    {
      "epoch": "2026-03-29T20:59:16.031904Z",
      "apogee_km": 535.8173403559722,
      "perigee_km": 527.8584312824851,
      "latitude_deg": 4.805704755891308e-05,
      "longitude_deg": -51.69482587330521,
      "height_km": 531.1391938920023,
      "semi_major_axis_km": 6909.974885819228,
      "eccentricity": 0.0005759,
      "inclination_deg": 99.5097,
      "raan_deg": 90.3963,
      "arg_perigee_deg": 21.4049,
      "mean_anomaly_deg": 338.7415,
      "mean_motion_rev_day": 15.11430071
    },
    {
      "epoch": "2026-03-29T20:59:16.032768Z",
      "apogee_km": 535.8171330567247,
      "perigee_km": 527.8586385817316,
      "latitude_deg": 4.933293724688604e-05,
      "longitude_deg": -51.69482969571323,
      "height_km": 531.1393869284949,
      "semi_major_axis_km": 6909.974885819228,
      "eccentricity": 0.00057587,
      "inclination_deg": 99.5097,
      "raan_deg": 90.3963,
      "arg_perigee_deg": 21.4049,
      "mean_anomaly_deg": 338.7415,
      "mean_motion_rev_day": 15.11430071
    },
    {
      "epoch": "2026-03-30T12:52:34.326624Z",
      "apogee_km": 535.7407153855938,
      "perigee_km": 527.8574457087407,
      "latitude_deg": 6.705515344759159e-05,
      "longitude_deg": 70.148729619315,
      "height_km": 531.1040620406743,
      "semi_major_axis_km": 6909.936080547167,
      "eccentricity": 0.00057043,
      "inclination_deg": 99.5097,
      "raan_deg": 91.2186,
      "arg_perigee_deg": 20.1003,
      "mean_anomaly_deg": 340.0445,
      "mean_motion_rev_day": 15.11442803
    },
    {
      "epoch": "2026-03-30T22:24:33.063264Z",
      "apogee_km": 535.6971114528214,
      "perigee_km": 527.8525649393905,
      "latitude_deg": 1.2601856762530545e-05,
      "longitude_deg": -72.74410252546203,
      "height_km": 531.0759411207758,
      "semi_major_axis_km": 6909.911838196106,
      "eccentricity": 0.00056763,
      "inclination_deg": 99.5095,
      "raan_deg": 91.712,
      "arg_perigee_deg": 19.1317,
      "mean_anomaly_deg": 341.0119,
      "mean_motion_rev_day": 15.11450757
    },
    {
      "epoch": "2026-03-31T17:28:30.120096Z",
      "apogee_km": 535.6284323776927,
      "perigee_km": 527.8437693422638,
      "latitude_deg": -4.9398030787029065e-05,
      "longitude_deg": 1.4720655018480773,
      "height_km": 531.0192690581205,
      "semi_major_axis_km": 6909.873100859978,
      "eccentricity": 0.0005633,
      "inclination_deg": 99.5097,
      "raan_deg": 92.6989,
      "arg_perigee_deg": 16.9136,
      "mean_anomaly_deg": 343.2274,
      "mean_motion_rev_day": 15.11463467
    },
    {
      "epoch": "2026-04-01T17:18:25.563744Z",
      "apogee_km": 535.511766984193,
      "perigee_km": 527.8736412292737,
      "latitude_deg": 2.7179850124856755e-06,
      "longitude_deg": 4.245994649031573,
      "height_km": 530.9918177594062,
      "semi_major_axis_km": 6909.829704106733,
      "eccentricity": 0.0005527,
      "inclination_deg": 99.5096,
      "raan_deg": 93.9326,
      "arg_perigee_deg": 13.8156,
      "mean_anomaly_deg": 346.3218,
      "mean_motion_rev_day": 15.11477706
    },
    {
      "epoch": "2026-04-02T10:47:01.640256Z",
      "apogee_km": 535.4097629262169,
      "perigee_km": 527.8805878766134,
      "latitude_deg": -2.772501424651654e-05,
      "longitude_deg": 102.28263950913156,
      "height_km": 530.9643370524299,
      "semi_major_axis_km": 6909.782175401415,
      "eccentricity": 0.00054482,
      "inclination_deg": 99.5094,
      "raan_deg": 94.8373,
      "arg_perigee_deg": 11.5051,
      "mean_anomaly_deg": 348.6296,
      "mean_motion_rev_day": 15.11493301
    },
    {
      "epoch": "2026-04-02T21:54:18.760896Z",
      "apogee_km": 535.3358739132655,
      "perigee_km": 527.8813639497384,
      "latitude_deg": -2.840273761630166e-05,
      "longitude_deg": -64.41973664287187,
      "height_km": 530.9444628053922,
      "semi_major_axis_km": 6909.745618931502,
      "eccentricity": 0.00053942,
      "inclination_deg": 99.5093,
      "raan_deg": 95.413,
      "arg_perigee_deg": 9.8282,
      "mean_anomaly_deg": 350.3046,
      "mean_motion_rev_day": 15.11505296
    },
    {
      "epoch": "2026-04-03T13:47:34.219104Z",
      "apogee_km": 535.2440099737278,
      "perigee_km": 527.8893213919746,
      "latitude_deg": 4.602885076015204e-05,
      "longitude_deg": 57.435960107741,
      "height_km": 530.9281070255413,
      "semi_major_axis_km": 6909.70366568285,
      "eccentricity": 0.0005322,
      "inclination_deg": 99.5095,
      "raan_deg": 96.2356,
      "arg_perigee_deg": 7.3234,
      "mean_anomaly_deg": 352.8067,
      "mean_motion_rev_day": 15.11519062
    },
    {
      "epoch": "2026-04-04T13:37:26.326848Z",
      "apogee_km": 535.1227622091301,
      "perigee_km": 527.8869852389671,
      "latitude_deg": -6.756861747115605e-06,
      "longitude_deg": 60.223742544416574,
      "height_km": 530.9026292576975,
      "semi_major_axis_km": 6909.641873724048,
      "eccentricity": 0.0005236,
      "inclination_deg": 99.5095,
      "raan_deg": 97.4692,
      "arg_perigee_deg": 3.3664,
      "mean_anomaly_deg": 356.7594,
      "mean_motion_rev_day": 15.11539338
    },
    {
      "epoch": "2026-04-05T13:27:17.405568Z",
      "apogee_km": 535.040026730142,
      "perigee_km": 527.8652470429925,
      "latitude_deg": 3.808612973311579e-05,
      "longitude_deg": 63.01590721205335,
      "height_km": 530.8752612939102,
      "semi_major_axis_km": 6909.589636886567,
      "eccentricity": 0.00051919,
      "inclination_deg": 99.5099,
      "raan_deg": 98.7029,
      "arg_perigee_deg": 359.5909,
      "mean_anomaly_deg": 0.531,
      "mean_motion_rev_day": 15.11556479
    },
    {
      "epoch": "2026-04-05T18:13:15.502944Z",
      "apogee_km": 535.0120911863978,
      "perigee_km": 527.8703511370059,
      "latitude_deg": -2.134344693512809e-05,
      "longitude_deg": -8.425293981664309,
      "height_km": 530.8809541760041,
      "semi_major_axis_km": 6909.578221161702,
      "eccentricity": 0.0005168,
      "inclination_deg": 99.5098,
      "raan_deg": 98.9495,
      "arg_perigee_deg": 358.9687,
      "mean_anomaly_deg": 1.1525,
      "mean_motion_rev_day": 15.11560225
    },
    {
      "epoch": "2026-04-05T22:59:13.578720Z",
      "apogee_km": 534.999632682453,
      "perigee_km": 527.8648115037204,
      "latitude_deg": -1.786986208430365e-07,
      "longitude_deg": -79.86621835593387,
      "height_km": 530.8761855999613,
      "semi_major_axis_km": 6909.569222093087,
      "eccentricity": 0.0005163,
      "inclination_deg": 99.5099,
      "raan_deg": 99.1963,
      "arg_perigee_deg": 358.4623,
      "mean_anomaly_deg": 1.6584,
      "mean_motion_rev_day": 15.11563178
    }
  ]
}